[{"OBJECT_NAME":"YAOGAN-31 04A","OBJECT_ID":"2021-020A","EPOCH":"2026-03-09T22:27:31.467168","MEAN_MOTION":13.45439854,"ECCENTRICITY":0.01663129,"INCLINATION":63.4059,"RA_OF_ASC_NODE":153.0369,"ARG_OF_PERICENTER":0.1157,"MEAN_ANOMALY":359.988,"EPHEMERIS_TYPE":0,"CLASSIFICATION_TYPE":"U","NORAD_CAT_ID":47854,"ELEMENT_SET_NO":999,"REV_AT_EPOCH":24511,"BSTAR":0.00010113421,"MEAN_MOTION_DOT":-2.5e-7,"MEAN_MOTION_DDOT":0},{"OBJECT_NAME":"ONEWEB-0193","OBJECT_ID":"2021-031AE","EPOCH":"2026-03-09T17:39:38.141568","MEAN_MOTION":13.14503398,"ECCENTRICITY":0.0001396,"INCLINATION":87.8988,"RA_OF_ASC_NODE":309.544,"ARG_OF_PERICENTER":94.9211,"MEAN_ANOMALY":265.2078,"EPHEMERIS_TYPE":0,"CLASSIFICATION_TYPE":"U","NORAD_CAT_ID":48238,"ELEMENT_SET_NO":999,"REV_AT_EPOCH":23524,"BSTAR":0.00078416939,"MEAN_MOTION_DOT":3.04e-6,"MEAN_MOTION_DDOT":0}]
